{
  "type": "FeatureCollection",
  "features": [
    {
      "type": "Feature",
      "properties": {
        "norad_id": 44333,
        "name": "AT&T T-16",
        "group": "intelsat",
        "lat": -0.029278679004576817,
        "lon": -31.616869292135,
        "alt_km": 35791.3928777707,
        "timestamp": "2025-12-19T22:41:52.047336+00:00",
        "meta_object_name": "AT&T T-16",
        "meta_object_id": "2019-034A",
        "meta_epoch": "2025-12-19T13:25:39.897120",
        "meta_mean_motion": 1.00270126,
        "meta_eccentricity": 0.000115,
        "meta_inclination": 0.0216,
        "meta_ra_of_asc_node": 60.6149,
        "meta_arg_of_pericenter": 88.5847,
        "meta_mean_anomaly": 39.7646,
        "meta_ephemeris_type": 0,
        "meta_classification_type": "U",
        "meta_norad_cat_id": 44333,
        "meta_element_set_no": 999,
        "meta_rev_at_epoch": 2383,
        "meta_bstar": 0,
        "meta_mean_motion_dot": -9.1e-07,
        "meta_mean_motion_ddot": 0,
        "tle_line1": "1 44333U 19034A   25353.55948955 -.00000091  00000+0  00000+0 0  9991",
        "tle_line2": "2 44333   0.0216  60.6149 0001150  88.5847  39.7646  1.00270126 23831"
      },
      "geometry": {
        "type": "Point",
        "coordinates": [
          -31.616869292135,
          -0.029278679004576817
        ]
      }
    },
    {
      "type": "Feature",
      "properties": {
        "norad_id": 44476,
        "name": "INTELSAT 39 (IS-39)",
        "group": "intelsat",
        "lat": 0.03489273733525915,
        "lon": 131.18623218100726,
        "alt_km": 35782.141836466355,
        "timestamp": "2025-12-19T22:41:52.047348+00:00",
        "meta_object_name": "INTELSAT 39 (IS-39)",
        "meta_object_id": "2019-049B",
        "meta_epoch": "2025-12-19T11:50:48.209856",
        "meta_mean_motion": 1.00271678,
        "meta_eccentricity": 9.34e-05,
        "meta_inclination": 0.0162,
        "meta_ra_of_asc_node": 16.1298,
        "meta_arg_of_pericenter": 115.4226,
        "meta_mean_anomaly": 196.4325,
        "meta_ephemeris_type": 0,
        "meta_classification_type": "U",
        "meta_norad_cat_id": 44476,
        "meta_element_set_no": 999,
        "meta_rev_at_epoch": 2332,
        "meta_bstar": 0,
        "meta_mean_motion_dot": 5.8e-07,
        "meta_mean_motion_ddot": 0,
        "tle_line1": "1 44476U 19049B   25353.49361354  .00000058  00000+0  00000+0 0  9992",
        "tle_line2": "2 44476   0.0162  16.1298 0000934 115.4226 196.4325  1.00271678 23322"
      },
      "geometry": {
        "type": "Point",
        "coordinates": [
          131.18623218100726,
          0.03489273733525915
        ]
      }
    },
    {
      "type": "Feature",
      "properties": {
        "norad_id": 46114,
        "name": "GALAXY 30 (G-30)",
        "group": "intelsat",
        "lat": -0.028227692793076138,
        "lon": -55.72900288400087,
        "alt_km": 35778.48861735166,
        "timestamp": "2025-12-19T22:41:52.047360+00:00",
        "meta_object_name": "GALAXY 30 (G-30)",
        "meta_object_id": "2020-056C",
        "meta_epoch": "2025-12-19T13:12:02.202336",
        "meta_mean_motion": 1.00273015,
        "meta_eccentricity": 0.0002025,
        "meta_inclination": 0.0093,
        "meta_ra_of_asc_node": 38.0786,
        "meta_arg_of_pericenter": 233.5866,
        "meta_mean_anomaly": 249.7539,
        "meta_ephemeris_type": 0,
        "meta_classification_type": "U",
        "meta_norad_cat_id": 46114,
        "meta_element_set_no": 999,
        "meta_rev_at_epoch": 1949,
        "meta_bstar": 0,
        "meta_mean_motion_dot": 6.1e-07,
        "meta_mean_motion_ddot": 0,
        "tle_line1": "1 46114U 20056C   25353.55002549  .00000061  00000+0  00000+0 0  9992",
        "tle_line2": "2 46114   0.0093  38.0786 0002025 233.5866 249.7539  1.00273015 19495"
      },
      "geometry": {
        "type": "Point",
        "coordinates": [
          -55.72900288400087,
          -0.028227692793076138
        ]
      }
    },
    {
      "type": "Feature",
      "properties": {
        "norad_id": 54026,
        "name": "GALAXY 33 (G-33)",
        "group": "intelsat",
        "lat": -0.032345864022328585,
        "lon": -63.74534897803104,
        "alt_km": 35780.50833857293,
        "timestamp": "2025-12-19T22:41:52.047372+00:00",
        "meta_object_name": "GALAXY 33 (G-33)",
        "meta_object_id": "2022-128A",
        "meta_epoch": "2025-12-19T13:14:24.484128",
        "meta_mean_motion": 1.00270988,
        "meta_eccentricity": 0.0001546,
        "meta_inclination": 0.0121,
        "meta_ra_of_asc_node": 37.1109,
        "meta_arg_of_pericenter": 230.7871,
        "meta_mean_anomaly": 246.1062,
        "meta_ephemeris_type": 0,
        "meta_classification_type": "U",
        "meta_norad_cat_id": 54026,
        "meta_element_set_no": 999,
        "meta_rev_at_epoch": 1194,
        "meta_bstar": 0,
        "meta_mean_motion_dot": 1.03e-06,
        "meta_mean_motion_ddot": 0,
        "tle_line1": "1 54026U 22128A   25353.55167227  .00000103  00000+0  00000+0 0  9997",
        "tle_line2": "2 54026   0.0121  37.1109 0001546 230.7871 246.1062  1.00270988 11949"
      },
      "geometry": {
        "type": "Point",
        "coordinates": [
          -63.74534897803104,
          -0.032345864022328585
        ]
      }
    },
    {
      "type": "Feature",
      "properties": {
        "norad_id": 54027,
        "name": "GALAXY 34 (G-34)",
        "group": "intelsat",
        "lat": -0.04290899722143643,
        "lon": -59.68511048187241,
        "alt_km": 35781.47093102238,
        "timestamp": "2025-12-19T22:41:52.047383+00:00",
        "meta_object_name": "GALAXY 34 (G-34)",
        "meta_object_id": "2022-128B",
        "meta_epoch": "2025-12-19T13:10:06.061728",
        "meta_mean_motion": 1.00267598,
        "meta_eccentricity": 0.0001742,
        "meta_inclination": 0.0227,
        "meta_ra_of_asc_node": 2.2643,
        "meta_arg_of_pericenter": 259.2525,
        "meta_mean_anomaly": 255.4687,
        "meta_ephemeris_type": 0,
        "meta_classification_type": "U",
        "meta_norad_cat_id": 54027,
        "meta_element_set_no": 999,
        "meta_rev_at_epoch": 1211,
        "meta_bstar": 0,
        "meta_mean_motion_dot": 0,
        "meta_mean_motion_ddot": 0,
        "tle_line1": "1 54027U 22128B   25353.54868127  .00000000  00000+0  00000+0 0  9990",
        "tle_line2": "2 54027   0.0227   2.2643 0001742 259.2525 255.4687  1.00267598 12112"
      },
      "geometry": {
        "type": "Point",
        "coordinates": [
          -59.68511048187241,
          -0.04290899722143643
        ]
      }
    },
    {
      "type": "Feature",
      "properties": {
        "norad_id": 54243,
        "name": "GALAXY 31 (G-31)",
        "group": "intelsat",
        "lat": -0.02359691567962618,
        "lon": -51.746239586721984,
        "alt_km": 35781.29900803525,
        "timestamp": "2025-12-19T22:41:52.047395+00:00",
        "meta_object_name": "GALAXY 31 (G-31)",
        "meta_object_id": "2022-153A",
        "meta_epoch": "2025-12-19T13:14:56.205024",
        "meta_mean_motion": 1.00270971,
        "meta_eccentricity": 0.0001366,
        "meta_inclination": 0.0145,
        "meta_ra_of_asc_node": 65.0111,
        "meta_arg_of_pericenter": 212.9999,
        "meta_mean_anomaly": 248.1254,
        "meta_ephemeris_type": 0,
        "meta_classification_type": "U",
        "meta_norad_cat_id": 54243,
        "meta_element_set_no": 999,
        "meta_rev_at_epoch": 533,
        "meta_bstar": 0,
        "meta_mean_motion_dot": 3.8e-07,
        "meta_mean_motion_ddot": 0,
        "tle_line1": "1 54243U 22153A   25353.55203941  .00000038  00000+0  00000+0 0  9997",
        "tle_line2": "2 54243   0.0145  65.0111 0001366 212.9999 248.1254  1.00270971  5335"
      },
      "geometry": {
        "type": "Point",
        "coordinates": [
          -51.746239586721984,
          -0.02359691567962618
        ]
      }
    },
    {
      "type": "Feature",
      "properties": {
        "norad_id": 54244,
        "name": "GALAXY 32 (G-32)",
        "group": "intelsat",
        "lat": -0.004517974889494356,
        "lon": -21.750960427343298,
        "alt_km": 35776.037257492346,
        "timestamp": "2025-12-19T22:41:52.047407+00:00",
        "meta_object_name": "GALAXY 32 (G-32)",
        "meta_object_id": "2022-153B",
        "meta_epoch": "2025-12-17T04:19:59.261664",
        "meta_mean_motion": 1.00271531,
        "meta_eccentricity": 0.000259,
        "meta_inclination": 0.0104,
        "meta_ra_of_asc_node": 339.7375,
        "meta_arg_of_pericenter": 338.8221,
        "meta_mean_anomaly": 101.4983,
        "meta_ephemeris_type": 0,
        "meta_classification_type": "U",
        "meta_norad_cat_id": 54244,
        "meta_element_set_no": 999,
        "meta_rev_at_epoch": 1131,
        "meta_bstar": 0,
        "meta_mean_motion_dot": -1.5e-06,
        "meta_mean_motion_ddot": 0,
        "tle_line1": "1 54244U 22153B   25351.18054701 -.00000150  00000+0  00000+0 0  9999",
        "tle_line2": "2 54244   0.0104 339.7375 0002590 338.8221 101.4983  1.00271531 11318"
      },
      "geometry": {
        "type": "Point",
        "coordinates": [
          -21.750960427343298,
          -0.004517974889494356
        ]
      }
    }
  ]
}